{
  "type": "FeatureCollection",
  "features": [
    {
      "type": "Feature",
      "properties": {
        "norad_id": 34540,
        "name": "IRIDIUM 33 DEB",
        "group": "iridium-33-debris",
        "lat": 86.02565956809468,
        "lon": 12.083328502522404,
        "alt_km": 627.0767994933585,
        "timestamp": "2025-12-20T22:39:11.009646+00:00",
        "meta_object_name": "IRIDIUM 33 DEB",
        "meta_object_id": "1997-051JH",
        "meta_epoch": "2025-12-20T14:54:55.202400",
        "meta_mean_motion": 14.75466794,
        "meta_eccentricity": 0.00176341,
        "meta_inclination": 86.3108,
        "meta_ra_of_asc_node": 304.0022,
        "meta_arg_of_pericenter": 132.3825,
        "meta_mean_anomaly": 44.8914,
        "meta_ephemeris_type": 0,
        "meta_classification_type": "U",
        "meta_norad_cat_id": 34540,
        "meta_element_set_no": 999,
        "meta_rev_at_epoch": 89137,
        "meta_bstar": 0.00096687591,
        "meta_mean_motion_dot": 6.614e-05,
        "meta_mean_motion_ddot": 0,
        "tle_line1": "1 34540U 97051JH  25354.62147225  .00006614  00000+0  96688-3 0  9992",
        "tle_line2": "2 34540  86.3108 304.0022 0017634 132.3825  44.8914 14.75466794891371"
      },
      "geometry": {
        "type": "Point",
        "coordinates": [
          12.083328502522404,
          86.02565956809468
        ]
      }
    },
    {
      "type": "Feature",
      "properties": {
        "norad_id": 34648,
        "name": "IRIDIUM 33 DEB",
        "group": "iridium-33-debris",
        "lat": 27.292478375322595,
        "lon": 96.76713730852985,
        "alt_km": 917.2132300056792,
        "timestamp": "2025-12-20T22:39:11.009662+00:00",
        "meta_object_name": "IRIDIUM 33 DEB",
        "meta_object_id": "1997-051JZ",
        "meta_epoch": "2025-12-20T01:30:04.009824",
        "meta_mean_motion": 14.11697564,
        "meta_eccentricity": 0.01804111,
        "meta_inclination": 86.3908,
        "meta_ra_of_asc_node": 278.9892,
        "meta_arg_of_pericenter": 275.9673,
        "meta_mean_anomaly": 82.0975,
        "meta_ephemeris_type": 0,
        "meta_classification_type": "U",
        "meta_norad_cat_id": 34648,
        "meta_element_set_no": 999,
        "meta_rev_at_epoch": 85064,
        "meta_bstar": 0.0043645055,
        "meta_mean_motion_dot": 9.277e-05,
        "meta_mean_motion_ddot": 0,
        "tle_line1": "1 34648U 97051JZ  25354.06254641  .00009277  00000+0  43645-2 0  9992",
        "tle_line2": "2 34648  86.3908 278.9892 0180411 275.9673  82.0975 14.11697564850648"
      },
      "geometry": {
        "type": "Point",
        "coordinates": [
          96.76713730852985,
          27.292478375322595
        ]
      }
    },
    {
      "type": "Feature",
      "properties": {
        "norad_id": 34651,
        "name": "IRIDIUM 33 DEB",
        "group": "iridium-33-debris",
        "lat": -84.31363015880746,
        "lon": 96.32605390591033,
        "alt_km": 822.667518083701,
        "timestamp": "2025-12-20T22:39:11.009676+00:00",
        "meta_object_name": "IRIDIUM 33 DEB",
        "meta_object_id": "1997-051KC",
        "meta_epoch": "2025-12-19T16:44:48.420096",
        "meta_mean_motion": 14.25922062,
        "meta_eccentricity": 0.01422464,
        "meta_inclination": 86.2827,
        "meta_ra_of_asc_node": 137.6175,
        "meta_arg_of_pericenter": 181.9677,
        "meta_mean_anomaly": 178.0974,
        "meta_ephemeris_type": 0,
        "meta_classification_type": "U",
        "meta_norad_cat_id": 34651,
        "meta_element_set_no": 999,
        "meta_rev_at_epoch": 85995,
        "meta_bstar": 0.0022061693,
        "meta_mean_motion_dot": 5.865e-05,
        "meta_mean_motion_ddot": 0,
        "tle_line1": "1 34651U 97051KC  25353.69778264  .00005865  00000+0  22062-2 0  9995",
        "tle_line2": "2 34651  86.2827 137.6175 0142246 181.9677 178.0974 14.25922062859957"
      },
      "geometry": {
        "type": "Point",
        "coordinates": [
          96.32605390591033,
          -84.31363015880746
        ]
      }
    },
    {
      "type": "Feature",
      "properties": {
        "norad_id": 34652,
        "name": "IRIDIUM 33 DEB",
        "group": "iridium-33-debris",
        "lat": -48.02575105287707,
        "lon": -27.742167533786926,
        "alt_km": 680.1325203139577,
        "timestamp": "2025-12-20T22:39:11.009692+00:00",
        "meta_object_name": "IRIDIUM 33 DEB",
        "meta_object_id": "1997-051KD",
        "meta_epoch": "2025-12-19T17:51:26.256096",
        "meta_mean_motion": 14.62117993,
        "meta_eccentricity": 0.00255284,
        "meta_inclination": 86.331,
        "meta_ra_of_asc_node": 336.8822,
        "meta_arg_of_pericenter": 272.5866,
        "meta_mean_anomaly": 207.7977,
        "meta_ephemeris_type": 0,
        "meta_classification_type": "U",
        "meta_norad_cat_id": 34652,
        "meta_element_set_no": 999,
        "meta_rev_at_epoch": 88586,
        "meta_bstar": 0.00063186757,
        "meta_mean_motion_dot": 3.211e-05,
        "meta_mean_motion_ddot": 0,
        "tle_line1": "1 34652U 97051KD  25353.74405389  .00003211  00000+0  63187-3 0  9994",
        "tle_line2": "2 34652  86.3310 336.8822 0025528 272.5866 207.7977 14.62117993885860"
      },
      "geometry": {
        "type": "Point",
        "coordinates": [
          -27.742167533786926,
          -48.02575105287707
        ]
      }
    },
    {
      "type": "Feature",
      "properties": {
        "norad_id": 34690,
        "name": "IRIDIUM 33 DEB",
        "group": "iridium-33-debris",
        "lat": -31.54015897331739,
        "lon": 31.197364430967554,
        "alt_km": 709.2808585543817,
        "timestamp": "2025-12-20T22:39:11.009708+00:00",
        "meta_object_name": "IRIDIUM 33 DEB",
        "meta_object_id": "1997-051KM",
        "meta_epoch": "2025-12-20T09:52:33.180096",
        "meta_mean_motion": 14.55121329,
        "meta_eccentricity": 0.0009919,
        "meta_inclination": 86.3775,
        "meta_ra_of_asc_node": 33.6571,
        "meta_arg_of_pericenter": 4.2918,
        "meta_mean_anomaly": 57.2138,
        "meta_ephemeris_type": 0,
        "meta_classification_type": "U",
        "meta_norad_cat_id": 34690,
        "meta_element_set_no": 999,
        "meta_rev_at_epoch": 88206,
        "meta_bstar": 0.00029381074,
        "meta_mean_motion_dot": 1.29e-05,
        "meta_mean_motion_ddot": 0,
        "tle_line1": "1 34690U 97051KM  25354.41149514  .00001290  00000+0  29381-3 0  9999",
        "tle_line2": "2 34690  86.3775  33.6571 0009919   4.2918  57.2138 14.55121329882060"
      },
      "geometry": {
        "type": "Point",
        "coordinates": [
          31.197364430967554,
          -31.54015897331739
        ]
      }
    },
    {
      "type": "Feature",
      "properties": {
        "norad_id": 34693,
        "name": "IRIDIUM 33 DEB",
        "group": "iridium-33-debris",
        "lat": 33.16217106816792,
        "lon": -57.83607105412865,
        "alt_km": 466.2060826760553,
        "timestamp": "2025-12-20T22:39:11.009725+00:00",
        "meta_object_name": "IRIDIUM 33 DEB",
        "meta_object_id": "1997-051KQ",
        "meta_epoch": "2025-12-20T07:28:21.213696",
        "meta_mean_motion": 15.29654599,
        "meta_eccentricity": 0.00122944,
        "meta_inclination": 86.3023,
        "meta_ra_of_asc_node": 300.0572,
        "meta_arg_of_pericenter": 39.2143,
        "meta_mean_anomaly": 113.2582,
        "meta_ephemeris_type": 0,
        "meta_classification_type": "U",
        "meta_norad_cat_id": 34693,
        "meta_element_set_no": 999,
        "meta_rev_at_epoch": 89030,
        "meta_bstar": 0.0032074262,
        "meta_mean_motion_dot": 0.00093319,
        "meta_mean_motion_ddot": 0,
        "tle_line1": "1 34693U 97051KQ  25354.31135664  .00093319  00000+0  32074-2 0  9997",
        "tle_line2": "2 34693  86.3023 300.0572 0012294  39.2143 113.2582 15.29654599890303"
      },
      "geometry": {
        "type": "Point",
        "coordinates": [
          -57.83607105412865,
          33.16217106816792
        ]
      }
    },
    {
      "type": "Feature",
      "properties": {
        "norad_id": 34696,
        "name": "IRIDIUM 33 DEB",
        "group": "iridium-33-debris",
        "lat": 46.62985897625844,
        "lon": 27.755776500768683,
        "alt_km": 673.9633268590087,
        "timestamp": "2025-12-20T22:39:11.009740+00:00",
        "meta_object_name": "IRIDIUM 33 DEB",
        "meta_object_id": "1997-051KT",
        "meta_epoch": "2025-12-20T03:03:36.896832",
        "meta_mean_motion": 14.65425134,
        "meta_eccentricity": 0.0073881,
        "meta_inclination": 86.1833,
        "meta_ra_of_asc_node": 24.0835,
        "meta_arg_of_pericenter": 142.6074,
        "meta_mean_anomaly": 281.0712,
        "meta_ephemeris_type": 0,
        "meta_classification_type": "U",
        "meta_norad_cat_id": 34696,
        "meta_element_set_no": 999,
        "meta_rev_at_epoch": 86781,
        "meta_bstar": 0.0025217059,
        "meta_mean_motion_dot": 0.00014237,
        "meta_mean_motion_ddot": 0,
        "tle_line1": "1 34696U 97051KT  25354.12751038  .00014237  00000+0  25217-2 0  9991",
        "tle_line2": "2 34696  86.1833  24.0835 0073881 142.6074 281.0712 14.65425134867818"
      },
      "geometry": {
        "type": "Point",
        "coordinates": [
          27.755776500768683,
          46.62985897625844
        ]
      }
    }
  ]
}